ONEWEB-0258             
1 48976U 21060K   25364.77107775  .00000087  00000+0  19468-3 0  9999
2 48976  87.9038 262.3190 0001433  77.0070 283.1221 13.16592990217437
ONEWEB-0259             
1 48977U 21060L   25364.76474321  .00000023  00000+0  25282-4 0  9995
2 48977  87.9045 262.3158 0001461  69.5506 290.5782 13.16593000217461
ONEWEB-0260             
1 48978U 21060M   25364.75603672 -.00000017  00000+0 -77693-4 0  9996
2 48978  87.9034 262.3296 0001961  76.6153 283.5196 13.16596471217449
ONEWEB-0261             
1 48979U 21060N   25364.80195566 -.00000022  00000+0 -90832-4 0  9997
2 48979  87.9038 262.3222 0001701  60.6242 299.5059 13.16596042217503
ONEWEB-0262             
1 48980U 21060P   25364.78215862  .00000121  00000+0  28270-3 0  9992
2 48980  87.9044 262.3014 0001280  67.4526 292.6741 13.16592988217465
ONEWEB-0263             
1 48981U 21060Q   25364.73782988  .00000025  00000+0  31404-4 0  9993
2 48981  87.9039 262.3239 0001582  60.5846 299.5442 13.16593763217425
ONEWEB-0264             
1 48982U 21060R   25364.77504065  .00000108  00000+0  24900-3 0  9990
2 48982  87.9036 262.3191 0001730  70.1628 289.9689 13.16594456217437
ONEWEB-0266             
1 48984U 21060T   25364.79640751  .00000171  00000+0  41424-3 0  9997
2 48984  87.9045 262.3027 0001402  76.0595 284.0692 13.16594156217427
